LEMUR-2-JIN-LUEN
1 43182U 18014C   24002.68629330  .00009599  00000-0  62940-3 0  9993
2 43182  97.6017 267.2694 0012722 196.3460 163.7360 15.07829015323629
